HELIOS 1B               
1 25977U 99064A   20250.88997821  .00000032  00000-0  11127-4 0  9990
2 25977  98.2915  48.6591 0002556  86.6248 273.5257 14.82492696387180
TERRA                   
1 25994U 99068A   20251.16185635  .00000035  00000-0  17899-4 0  9992
2 25994  98.2074 324.2905 0001363 102.2131 257.9238 14.57113810102212
SL-16 R/B               
1 26070U 00006B   20250.57791130  .00000125  00000-0  88568-4 0  9990
2 26070  71.0045   2.7792 0016692 353.4599   6.6304 14.15464633 64111
MTI                     
1 26102U 00014A   20251.22683855  .00004275  00000-0  62084-4 0  9997
2 26102  97.4920 137.4609 0005883 294.5913  65.4719 15.56400341137238
TITAN 4B R/B            
1 26474U 00047B   20251.15525994  .00000024  00000-0  13016-4 0  9995
2 26474  67.9930 210.7966 0051210 109.4023 251.2665 14.95983560 91544
ENVISAT                 
1 27386U 02009A   20251.04425778  .00000000  00000-0  13545-4 0  9996
2 27386  98.1382 253.8077 0001311  84.7061 339.6613 14.37991021970344
IDEFIX & ARIANE 42P R/B 
1 27422U 02021B   20250.59126118 -.00000009  00000-0  12764-4 0  9998
2 27422  98.3586 208.3294 0012271 357.3004   2.8111 14.29293315954865
AQUA                    
1 27424U 02022A   20250.65138887  .00000063  00000-0  24027-4 0  9998
2 27424  98.2065 190.1181 0002717  86.1583  15.2981 14.57114155975696
CZ-4B R/B               
1 27432U 02024C   20250.64544253 -.00000037  00000-0  51953-5 0  9997
2 27432  99.0904 254.2230 0049673 308.1237 157.5511 14.14096530945200
MIDORI II (ADEOS-II)    
1 27597U 02056A   20250.84687144  .00000028  00000-0  28914-4 0  9992
2 27597  98.5251 196.4098 0002079  95.2649 264.8770 14.27458330923423
H-2A R/B                
1 27601U 02056E   20250.59036630  .00000035  00000-0  27414-4 0  9990
2 27601  98.2208 282.1654 0072852  36.8558  73.4294 14.31966384926308
CZ-4B R/B               
1 28059U 03049C   20250.53505340 -.00000006  00000-0  10425-4 0  9997
2 28059  98.4818 167.9698 0048898 250.3669 109.2245 14.52609020894584
CZ-2C R/B               
1 28222U 04012C   20250.86781965  .00000420  00000-0  28950-4 0  9996
2 28222  97.6851 213.6655 0048576 110.7960 305.7967 15.10453485898329
SL-16 R/B               
1 28353U 04021B   20251.11322312  .00000041  00000-0  46515-4 0  9993
2 28353  71.0014 128.0637 0006463 229.3544 130.7016 14.14241580838693
CZ-4B R/B               
1 28415U 04035C   20251.11269754  .00000143  00000-0  13540-4 0  9992
2 28415  97.6070 291.7644 0053074  74.6552 286.0531 15.06903164875934
CZ-2C R/B               
1 28480U 04046B   20251.10572539 -.00000044  00000-0 -10916-5 0  9990
2 28480  98.0733 279.7010 0141522 343.8280  78.1538 14.25727735822077
ARIANE 5 R/B            
1 28499U 04049H   20250.91745745  .00000014  00000-0  91269-5 0  9997
2 28499  98.0588 352.9667 0092372  10.8672 102.9705 14.80043545848140
CZ-2D R/B               
1 28738U 05024B   20251.17531867  .00000161  00000-0  13005-4 0  9998
2 28738  97.3799 271.0275 0010289 260.2217  99.7852 15.12092286833772
SUZAKU (ASTRO-EII)      
1 28773U 05025A   20250.57874155  .00000737  00000-0  31387-4 0  9993
2 28773  31.3810 209.1226 0004515 301.8659  58.1549 15.17663856836292
ALOS (DAICHI)           
1 28931U 06002A   20250.95634364  .00000112  00000-0  30579-4 0  9992
2 28931  97.8514 232.7216 0001175 115.4124 244.7200 14.62736607779615
H-2A R/B                
1 28932U 06002B   20250.91882581  .00000156  00000-0  20561-4 0  9993
2 28932  98.3270 245.5599 0089803  55.5677   2.0813 14.92275740793292
AKARI (ASTRO-F)         
1 28939U 06005A   20250.57177273  .00003233  00000-0  86429-4 0  9994
2 28939  98.2395 234.0474 0093513  41.0799 319.7434 15.34630347793336
RESURS-DK 1             
1 29228U 06021A   20250.63300994  .00000036  00000-0  10048-4 0  9991
2 29228  69.9373 341.3369 0006608 311.1480  48.9110 15.02564186784942
GENESIS 1               
1 29252U 06029A   20250.95983909  .00000062  00000-0  12911-4 0  9994
2 29252  64.5225  34.9875 0006727  33.1569 326.9974 15.18204147780559
CZ-4B R/B               
1 29507U 06046C   20251.17366423 -.00000772  00000-0 -54713-4 0  9993
2 29507  97.7413 272.8567 0047185 246.6762 112.9492 15.00598832757672
CZ-2C R/B               
1 31114U 07010B   20250.58709882  .00000040  00000-0  37260-4 0  9990
2 31114  98.2531  97.9814 0060429  31.6758 328.8034 14.19330829694512
COSMO-SKYMED 1          
1 31598U 07023A   20251.09802485  .00000060  00000-0  14045-4 0  9998
2 31598  97.8869  73.0701 0001464  85.6565 274.4791 14.82159740716923
GENESIS 2               
1 31789U 07028A   20250.89451665  .00000381  00000-0  29155-4 0  9996
2 31789  64.5034  76.9475 0035223 234.4905 125.2931 15.17334940727536
COSMOS 2428             
1 31792U 07029A   20251.01686179 -.00000334  00000-0 -15523-3 0  9999
2 31792  70.9023 101.6620 0010717 305.7825  54.2299 14.12287999680385
SL-16 R/B               
1 31793U 07029B   20250.89481428 -.00000324  00000-0 -14399-3 0  9994
2 31793  70.9750  75.2823 0002348 264.0124 197.3470 14.14435041681245
KORONAS-FOTON           
1 33504U 09003A   20250.17671129  .00000573  00000-0  28305-4 0  9997
2 33504  82.4432 142.5132 0019253   4.7991 355.3422 15.15694945639717
H-2A R/B                
1 38341U 12025E   20250.55904474  .00000141  00000-0  24179-4 0  9999
2 38341  98.5104  50.8712 0054899 332.5461  27.2853 14.84065660449396
CUSAT 2 & FALCON 9 R/B  
1 39271U 13055G   20251.18658347  .00003499  00000-0  84618-4 0  9994
2 39271  80.9690 179.0499 0583565 284.3672  69.3445 14.48982805362561
SL-4 R/B                
1 39679U 14021B   20251.04281322 -.00000022  00000-0  17122-4 0  9996
2 39679  51.6167  88.7651 0171266 228.3790 130.2402 15.06474308351640
ALOS-2                  
1 39766U 14029A   20251.07635416  .00000103  00000-0  20662-4 0  9993
2 39766  97.9231 346.5062 0001531  88.2008 271.9369 14.79472361339765
CZ-2C R/B               
1 40306U 14071B   20250.58415944  .00002428  00000-0  52525-4 0  9994
2 40306  97.3303 197.8537 0013903 225.1966 134.8154 15.45410387326372
SL-27 R/B               
1 40354U 14084B   20250.65245438  .00000910  00000-0  23339-4 0  9993
2 40354  74.7369 220.0941 0037240   5.6549 354.5075 15.40339500320630
YAOGAN 29               
1 41038U 15069A   20251.08494121  .00000027  00000-0  10467-4 0  9997
2 41038  98.0159 238.9449 0001648  48.8448 311.2908 14.80458288258359
ASTRO-H (HITOMI)        
1 41337U 16012A   20251.11982752  .00000230  00000-0  11723-4 0  9996
2 41337  31.0045 211.9531 0012409 158.6553 201.4601 14.98705439249766
SHENZHOU-11 MODULE      
1 41868U 16061G   20250.67629216  .00159807  20602-4  15882-3 0  9990
2 41868  42.7856 343.6262 0014685  21.2173  89.2328 16.10256716219107
HXMT (HUIYAN)           
1 42758U 17034A   20251.15187089  .00000297  00000-0  32201-4 0  9990
2 42758  43.0200 307.7923 0009970 188.8889 266.9593 15.08884185178210
CZ-2C R/B               
1 43521U 18054D   20250.81349132  .00000548  00000-0  31978-4 0  9992
2 43521  35.1543  38.5331 0081859 115.4949 245.4258 15.11061512121462
AEOLUS                  
1 43600U 18066A   20251.08825568  .00022645  00000-0  89633-4 0  9998
2 43600  96.7205 256.2581 0005358 101.6105 258.5770 15.86752080118318
SAOCOM 1A               
1 43641U 18076A   20251.10629133 -.00000008  00000-0  55016-5 0  9996
2 43641  97.8895  76.0549 0001490  79.8270 280.3102 14.82156559103695
CREW DRAGON DEMO-1 DEB  
1 44064U 19011B   20251.09556957  .00012986  00000-0  12548-3 0  9995
2 44064  51.6327 258.2469 0003894  21.1759 338.9397 15.66830447 85705
